[{"OBJECT_NAME":"LAPAN-A3","OBJECT_ID":"2016-040E","EPOCH":"2026-03-09T23:01:57.724896","MEAN_MOTION":15.3238951,"ECCENTRICITY":0.00109839,"INCLINATION":97.1488,"RA_OF_ASC_NODE":68.4254,"ARG_OF_PERICENTER":22.062,"MEAN_ANOMALY":338.1093,"EPHEMERIS_TYPE":0,"CLASSIFICATION_TYPE":"U","NORAD_CAT_ID":41603,"ELEMENT_SET_NO":999,"REV_AT_EPOCH":53961,"BSTAR":0.00017567445,"MEAN_MOTION_DOT":5.428e-5,"MEAN_MOTION_DDOT":0},{"OBJECT_NAME":"STARLINK-35699","OBJECT_ID":"2025-268A","EPOCH":"2026-03-09T03:48:31.739616","MEAN_MOTION":15.27557802,"ECCENTRICITY":0.00017558,"INCLINATION":43.0027,"RA_OF_ASC_NODE":350.493,"ARG_OF_PERICENTER":256.2018,"MEAN_ANOMALY":103.8638,"EPHEMERIS_TYPE":0,"CLASSIFICATION_TYPE":"U","NORAD_CAT_ID":66557,"ELEMENT_SET_NO":999,"REV_AT_EPOCH":1787,"BSTAR":0.0012539595,"MEAN_MOTION_DOT":0.00034382,"MEAN_MOTION_DDOT":0}]
